#aV2012  8 22  0  0  0.00000000     288 DD+AD WGS84 FIT  NGA
## 1702 259200.00000000   300.00000000 56161 0.0000000000000
+   31     1  2  3  4  5  6  7  8  9 10 11 12 13 14 15 16 17
+         18 19 20 21 22 23 25 26 27 28 29 30 31 32  0  0  0
+          0  0  0  0  0  0  0  0  0  0  0  0  0  0  0  0  0
+          0  0  0  0  0  0  0  0  0  0  0  0  0  0  0  0  0
+          0  0  0  0  0  0  0  0  0  0  0  0  0  0  0  0  0
++         2  2  2  2  2  2  2  2  2  2  2  2  2  2  2  2  2
++         2  2  2  2  2  2  2  2  2  2  2  2  2  2  2  0  0
++         0  0  0  0  0  0  0  0  0  0  0  0  0  0  0  0  0
++         0  0  0  0  0  0  0  0  0  0  0  0  0  0  0  0  0
++         0  0  0  0  0  0  0  0  0  0  0  0  0  0  0  0  0
%c cc cc ccc ccc cccc cccc cccc cccc ccccc ccccc ccccc ccccc
%c cc cc ccc ccc cccc cccc cccc cccc ccccc ccccc ccccc ccccc
%f  0.0000000  0.000000000  0.00000000000  0.000000000000000
%f  0.0000000  0.000000000  0.00000000000  0.000000000000000
%i    0    0    0    0      0      0      0      0         0
%i    0    0    0    0      0      0      0      0         0
/*      NGA, ST. LOUIS,MO.                                  
/*   EPHEMERIS COMPUTED FROM  1 DAYS OF DATA
/*   EPOCHA SMOOTHER  
/* CCCCCCCCCCCCCCCCCCCCCCCCCCCCCCCCCCCCCCCCCCCCCCCCCCCCCCCCC
*  2012  8 22 17 40  0.00000000                                                 
P  1  14220.590932 -21665.281913   5683.802207    270.645900                    
V  1   -468.753170   7743.845570  30675.294782      0.014977                    
P  2 -16855.587638   1667.794560 -20199.256413    400.641969                    
V  2   9191.846294 -24547.954394 -10132.048338      0.010981                    
P  3  20317.030814   3960.410936  16295.048566     91.627121                    
V  3  13066.407422  17360.921380 -19660.036934      0.049727                    
P  4 -11214.164589 -12323.475725 -20886.941416    281.988268                    
V  4  11723.879667 -23318.865100   7868.032466      0.113056                    
P  5 -26554.342922   1676.363120  -1218.496090   -345.786961                    
V  5   1224.248013  -3171.928444 -31378.121993     -0.032022                    
P  6  20718.941581   9215.210056  14187.880319    -14.136124                    
V  6   9254.776439  15353.765147 -23350.684410     -0.075594                    
P  7   5737.761393 -24527.589652   7983.991192    113.689409                    
V  7   6540.124568  -8137.448538 -30066.157423      0.040890                    
P  8  -3520.132089 -18107.545175  18941.870416      2.059835                    
V  8  13157.220845 -20132.365514 -17439.898359      0.000855                    
P  9 -15392.442414  19322.936579   9277.247242    180.461392                    
V  9   3337.272902 -12235.527045  29227.976405      0.026017                    
P 10 -18685.977548 -10390.765846 -16266.562677    -49.077872                    
V 10  19869.136762  -3364.236147 -20608.916315     -0.013367                    
P 11  13269.994172 -18735.314036  12693.091498   -294.872782                    
V 11   1682.161005  17538.512335  23706.872767     -0.039515                    
P 12 -18518.064246  11416.515575 -15122.333120     86.832135                    
V 12 -19278.460080   -400.452473  23515.878541      0.020381                    
P 13  -2630.377102 -22667.423237 -13630.595534    186.244523                    
V 13   9971.587132  13968.341580 -25513.426168     -0.025327                    
P 14  14685.713563  22176.899256  -1356.049381    210.729956                    
V 14   -827.215008   2787.046074  31960.697484      0.010462                    
P 15 -12846.383593   8814.685681  21507.255008    -94.117928                    
V 15 -16399.492332 -21929.640459   -590.149999     -0.005739                    
P 16  26701.447371   -509.626146  -1230.608851   -244.333911                    
V 16  -1441.713823   1968.633243 -31945.205666     -0.009116                    
P 17 -15050.892519 -22026.314305   -719.643972    102.882795                    
V 17   1499.458000  -2328.217574  31641.950180     -0.032462                    
P 18   2030.715772  15967.840225  21511.491220    211.331283                    
V 18 -26466.555369   2227.130416    497.092921      0.018087                    
P 19  14419.832332  -5274.629102  21632.743601   -296.780232                    
V 19  13809.252718  23889.886806  -2976.239565     -0.035932                    
P 20  15156.286443 -14517.568926 -16394.748821     66.730686                    
V 20  20791.240838   -486.949319  19911.484699      0.006906                    
P 21  -2102.618734  24008.836358  11001.572478   -244.855610                    
V 21  -8856.031990  10767.375432 -26982.426753     -0.024647                    
P 22  16971.974057  11496.318070  17146.400814    146.907360                    
V 22 -21212.505290   3988.453257  18399.217528      0.005554                    
P 23   6746.532395 -15418.014535 -20401.422342    172.383015                    
V 23  15806.971333  20838.679141 -10875.399711     -0.039444                    
P 25  -5106.558519  15169.920592 -21225.729375     40.463459                    
V 25 -26765.868895   2108.677655   8022.142785      0.010863                    
P 26 -17654.977027  -5673.996516  18534.907412   -306.222076                    
V 26 -11511.669813 -21839.698407 -16742.896129      0.125792                    
P 27 -16678.416934  14879.073112  14526.238667    423.015303                    
V 27   5085.460409 -16933.993253  24700.710953      0.041024                    
P 28 -13579.330294 -12618.168754  19661.795003    177.825661                    
V 28  23597.457377  -1832.923872  15358.218092      0.038262                    
P 29   -129.036474  20852.113492 -16425.060216    347.139061                    
V 29 -12821.572472 -16638.338315 -20906.856172      0.042307                    
P 30  23337.278379   4173.449464 -12322.916031   -379.810589                    
V 30 -14364.337237   5128.607060 -26258.038629     -0.243341                    
P 31  11495.113520   9615.186821 -21718.095328    269.313794                    
V 31 -12541.387569  25032.029595   4641.879441      0.025636                    
P 32  22738.148682  -7718.845911 -10592.686693   -479.541466                    
V 32  13954.753945   3064.871008  27700.691757     -0.042904                    
EOF
